{
  "type": "FeatureCollection",
  "name": "imagens_pontos",
  "crs": {
    "type": "name",
    "properties": {
      "name": "urn:ogc:def:crs:OGC:1.3:CRS84"
    }
  },
  "features": [],
  "ficha": {
    "id": "MS6B65IL",
    "dataCampo": "2026-07-29",
    "horaIni": "07:00",
    "horaFim": "17:00",
    "atividade": "Monitoramento",
    "categoria": "ADA",
    "projeto": "Santa Lúcia ",
    "coordCampo": "Cícero Oliveira ",
    "arqResp": "Cícero Oliveira ",
    "tipoAcao": "Abertura de acessos ",
    "clima": "ensolarado",
    "vegetacao": "Área de pastagem ",
    "relevo": "Acidentado ",
    "solo": "Latossolo argiloso ",
    "vestigios": "NAO",
    "coleta": "NAO",
    "desc": "Área de pastagem com capim e gramíneas, o entorno da área e composto por árvores nativas de médio porte.",
    "obs": "Durante acompanhamento das atividades, não evidênciamos materialidade aequeólogica.",
    "modeloDocx": "MONITORAMENTO",
    "status": "DRAFT",
    "imagens_sem_gps": [
      {
        "nome": "20260729_081958",
        "arquivo": "20260729_081958.jpg",
        "caminho": "IMGS/20260729_081958.jpg",
        "data": "29/07/2026",
        "horario": "08:19",
        "legenda": "Revolvimento de solo ",
        "hash_sha256": "15c5ca30ae070b3b26c05ec7772ac64107746c886830aa2b2f8650c479133f6d",
        "origem_coordenadas": "SEM_GPS",
        "exif_js_status": "GPS_NAO_ENCONTRADO_JS",
        "exif_native_status": "GPS_NAO_ENCONTRADO_NO_EXIF_NATIVO",
        "exif_native_modo_leitura": "FALLBACK_URI"
      },
      {
        "nome": "20260729_081140",
        "arquivo": "20260729_081140.jpg",
        "caminho": "IMGS/20260729_081140.jpg",
        "data": "29/07/2026",
        "horario": "08:11",
        "legenda": "Acompanhamento de atividade ",
        "hash_sha256": "18a48f3e614f9978c61bdbff8a2daf010ebd9b952f5b0679ac4ad07d7ae5f265",
        "origem_coordenadas": "SEM_GPS",
        "exif_js_status": "GPS_NAO_ENCONTRADO_JS",
        "exif_native_status": "GPS_NAO_ENCONTRADO_NO_EXIF_NATIVO",
        "exif_native_modo_leitura": "FALLBACK_URI"
      },
      {
        "nome": "20260729_081159",
        "arquivo": "20260729_081159.jpg",
        "caminho": "IMGS/20260729_081159.jpg",
        "data": "29/07/2026",
        "horario": "08:11",
        "legenda": "Revolvimento de solo ",
        "hash_sha256": "d52fdf522c41eda2100a0c7b9caaf42ac792cdb53dac8ae54606e297efc21750",
        "origem_coordenadas": "SEM_GPS",
        "exif_js_status": "GPS_NAO_ENCONTRADO_JS",
        "exif_native_status": "GPS_NAO_ENCONTRADO_NO_EXIF_NATIVO",
        "exif_native_modo_leitura": "FALLBACK_URI"
      },
      {
        "nome": "20260729_081106",
        "arquivo": "20260729_081106.jpg",
        "caminho": "IMGS/20260729_081106.jpg",
        "data": "29/07/2026",
        "horario": "08:11",
        "legenda": "Revolvimento de solo ",
        "hash_sha256": "bb8d7c7456489d7fea18a6c9e94554e06f6d9dc09cd69dc01b4d7477b17b709d",
        "origem_coordenadas": "SEM_GPS",
        "exif_js_status": "GPS_NAO_ENCONTRADO_JS",
        "exif_native_status": "GPS_NAO_ENCONTRADO_NO_EXIF_NATIVO",
        "exif_native_modo_leitura": "FALLBACK_URI"
      }
    ]
  }
}