{
  "type": "FeatureCollection",
  "name": "imagens_pontos",
  "crs": {
    "type": "name",
    "properties": {
      "name": "urn:ogc:def:crs:OGC:1.3:CRS84"
    }
  },
  "features": [
    {
      "type": "Feature",
      "id": "TimePhoto_20260928_093223.jpg",
      "properties": {
        "nome": "TimePhoto_20260928_093223",
        "arquivo": "TimePhoto_20260928_093223.jpg",
        "caminho": "IMGS/TimePhoto_20260928_093223.jpg",
        "lat": -6.504916388888889,
        "lon": -49.70203638888889,
        "latlon": "-6.504916, -49.702036",
        "utm": "22M 643519 9280796",
        "utm_zone": 22,
        "utm_band": "M",
        "utm_easting": 643519,
        "utm_northing": 9280796,
        "utm_hemisphere": "S",
        "data": "28/09/2026",
        "horario": "09:32",
        "legenda": "Acompanhamento de atividade",
        "hash_md5": null,
        "hash_sha256": "25383a5c3cfc179e048433146f08eba654bcefd4213155cac6a3723fc9034dac",
        "origem_coordenadas": "ANDROID_EXIF_NATIVE",
        "exif_js_status": "GPS_OK",
        "exif_native_status": "GPS_OK",
        "exif_native_modo_leitura": "SELECTED_URI_PFD",
        "exif_native_seletor": null,
        "exif_native_rotas_tentadas": null,
        "duplicata_local_sha256": false,
        "grupo_duplicata_sha256": ""
      },
      "geometry": {
        "type": "Point",
        "coordinates": [
          -49.70203638888889,
          -6.504916388888889
        ]
      }
    },
    {
      "type": "Feature",
      "id": "TimePhoto_20260928_100129.jpg",
      "properties": {
        "nome": "TimePhoto_20260928_100129",
        "arquivo": "TimePhoto_20260928_100129.jpg",
        "caminho": "IMGS/TimePhoto_20260928_100129.jpg",
        "lat": -6.505041666666667,
        "lon": -49.70194166666667,
        "latlon": "-6.505042, -49.701942",
        "utm": "22M 643530 9280782",
        "utm_zone": 22,
        "utm_band": "M",
        "utm_easting": 643530,
        "utm_northing": 9280782,
        "utm_hemisphere": "S",
        "data": "28/09/2026",
        "horario": "10:01",
        "legenda": "Carregamento de matéria orgânica",
        "hash_md5": null,
        "hash_sha256": "c3eedb585642015d4087fdf9b504de031db9f7bb176dedd5519ab8af32cb5335",
        "origem_coordenadas": "ANDROID_EXIF_NATIVE",
        "exif_js_status": "GPS_OK",
        "exif_native_status": "GPS_OK",
        "exif_native_modo_leitura": "SELECTED_URI_PFD",
        "exif_native_seletor": null,
        "exif_native_rotas_tentadas": null,
        "duplicata_local_sha256": false,
        "grupo_duplicata_sha256": ""
      },
      "geometry": {
        "type": "Point",
        "coordinates": [
          -49.70194166666667,
          -6.505041666666667
        ]
      }
    },
    {
      "type": "Feature",
      "id": "TimePhoto_20260928_093240.jpg",
      "properties": {
        "nome": "TimePhoto_20260928_093240",
        "arquivo": "TimePhoto_20260928_093240.jpg",
        "caminho": "IMGS/TimePhoto_20260928_093240.jpg",
        "lat": -6.504951666666667,
        "lon": -49.70210166666667,
        "latlon": "-6.504952, -49.702102",
        "utm": "22M 643512 9280792",
        "utm_zone": 22,
        "utm_band": "M",
        "utm_easting": 643512,
        "utm_northing": 9280792,
        "utm_hemisphere": "S",
        "data": "28/09/2026",
        "horario": "09:32",
        "legenda": "Revolvimento de solo",
        "hash_md5": null,
        "hash_sha256": "229735b886b4caebbf06af790bd1a7a2b77c086b85617a2f6b723cb5cbab8323",
        "origem_coordenadas": "ANDROID_EXIF_NATIVE",
        "exif_js_status": "GPS_OK",
        "exif_native_status": "GPS_OK",
        "exif_native_modo_leitura": "SELECTED_URI_PFD",
        "exif_native_seletor": null,
        "exif_native_rotas_tentadas": null,
        "duplicata_local_sha256": false,
        "grupo_duplicata_sha256": ""
      },
      "geometry": {
        "type": "Point",
        "coordinates": [
          -49.70210166666667,
          -6.504951666666667
        ]
      }
    },
    {
      "type": "Feature",
      "id": "TimePhoto_20260928_093151.jpg",
      "properties": {
        "nome": "TimePhoto_20260928_093151",
        "arquivo": "TimePhoto_20260928_093151.jpg",
        "caminho": "IMGS/TimePhoto_20260928_093151.jpg",
        "lat": -6.504785,
        "lon": -49.70185333333334,
        "latlon": "-6.504785, -49.701853",
        "utm": "22M 643540 9280811",
        "utm_zone": 22,
        "utm_band": "M",
        "utm_easting": 643540,
        "utm_northing": 9280811,
        "utm_hemisphere": "S",
        "data": "28/09/2026",
        "horario": "09:31",
        "legenda": "Revolvimento de solo",
        "hash_md5": null,
        "hash_sha256": "6fa3c4308f5e332aaa504ee294c17ec007b29b6dfa77c696c6e29536bfb689c9",
        "origem_coordenadas": "ANDROID_EXIF_NATIVE",
        "exif_js_status": "GPS_OK",
        "exif_native_status": "GPS_OK",
        "exif_native_modo_leitura": "SELECTED_URI_PFD",
        "exif_native_seletor": null,
        "exif_native_rotas_tentadas": null,
        "duplicata_local_sha256": false,
        "grupo_duplicata_sha256": ""
      },
      "geometry": {
        "type": "Point",
        "coordinates": [
          -49.70185333333334,
          -6.504785
        ]
      }
    }
  ],
  "ficha": {
    "id": "MULMM9V9",
    "dataCampo": "2026-09-28",
    "horaIni": "07:00",
    "horaFim": "17:00",
    "atividade": "Monitoramento",
    "categoria": "ADA",
    "projeto": "Santa Lúcia ",
    "coordCampo": "Cícero Oliveira ",
    "arqResp": "Cícero Oliveira ",
    "tipoAcao": "Remoção de vegetação e carregamento de matéria orgânica ",
    "clima": "ensolarado",
    "vegetacao": "Capim e gramíneas ",
    "relevo": "Levemente acidentado ",
    "solo": "Latossolo argiloso ",
    "vestigios": "NAO",
    "coleta": "NAO",
    "desc": "Área de pastagem composta por capim e gramíneas.",
    "obs": "Durante acompanhamento das atividades, não evidênciamos materialidade aequeólogica.",
    "modeloDocx": "MONITORAMENTO",
    "status": "DRAFT",
    "imagens_sem_gps": []
  }
}