{
  "type": "FeatureCollection",
  "name": "imagens_pontos",
  "crs": {
    "type": "name",
    "properties": {
      "name": "urn:ogc:def:crs:OGC:1.3:CRS84"
    }
  },
  "features": [],
  "ficha": {
    "id": "MRZNTXJ0",
    "dataCampo": "2026-07-24",
    "horaIni": "07:00",
    "horaFim": "17:00",
    "atividade": "Monitoramento",
    "categoria": "ADA",
    "projeto": "Santa Lúcia ",
    "coordCampo": "Cícero Oliveira ",
    "arqResp": "Cícero Oliveira ",
    "tipoAcao": "Ampliação de acessos ",
    "clima": "ensolarado",
    "vegetacao": "Área de passagem ",
    "relevo": "Acidentado ",
    "solo": "Latossolo argiloso ",
    "vestigios": "NAO",
    "coleta": "NAO",
    "desc": "Área de passagem com entorno composto por floresta manejada ",
    "obs": "Durante acompanhamento das atividades, não evidênciamos materialidade aequeólogica.",
    "modeloDocx": "MONITORAMENTO",
    "status": "DRAFT",
    "imagens_sem_gps": [
      {
        "nome": "20260724_075455",
        "arquivo": "20260724_075455.jpg",
        "caminho": "IMGS/20260724_075455.jpg",
        "data": "24/07/2026",
        "horario": "07:54",
        "legenda": "Averiguação de perfil ",
        "hash_sha256": "a6296477563ea27ac5ec672509914e17a9b0442f0c29be51c5237de4ec807e6a",
        "origem_coordenadas": "SEM_GPS",
        "exif_js_status": "GPS_NAO_ENCONTRADO_JS",
        "exif_native_status": "GPS_NAO_ENCONTRADO_NO_EXIF_NATIVO",
        "exif_native_modo_leitura": "FALLBACK_URI"
      },
      {
        "nome": "20260724_075412",
        "arquivo": "20260724_075412.jpg",
        "caminho": "IMGS/20260724_075412.jpg",
        "data": "24/07/2026",
        "horario": "07:54",
        "legenda": "Revolvimento de solo ",
        "hash_sha256": "71b4432ccbf46e7fff964c6fe83f00d351e4dc52465514a661d9d557e3d83e2b",
        "origem_coordenadas": "SEM_GPS",
        "exif_js_status": "GPS_NAO_ENCONTRADO_JS",
        "exif_native_status": "GPS_NAO_ENCONTRADO_NO_EXIF_NATIVO",
        "exif_native_modo_leitura": "FALLBACK_URI"
      },
      {
        "nome": "20260724_075650",
        "arquivo": "20260724_075650.jpg",
        "caminho": "IMGS/20260724_075650.jpg",
        "data": "24/07/2026",
        "horario": "07:56",
        "legenda": "Revolvimento de solo ",
        "hash_sha256": "9b8680ea143488b255d4e595c5f2fb695769bb4ba27765ffb4790378a864af16",
        "origem_coordenadas": "SEM_GPS",
        "exif_js_status": "GPS_NAO_ENCONTRADO_JS",
        "exif_native_status": "GPS_NAO_ENCONTRADO_NO_EXIF_NATIVO",
        "exif_native_modo_leitura": "FALLBACK_URI"
      },
      {
        "nome": "20260724_075341",
        "arquivo": "20260724_075341.jpg",
        "caminho": "IMGS/20260724_075341.jpg",
        "data": "24/07/2026",
        "horario": "07:53",
        "legenda": "Revolvimento de solo ",
        "hash_sha256": "dcda74c6355d35ec1e3fb1c66dcd41454ec0ff4c78d56f05a6f51afae25a39ac",
        "origem_coordenadas": "SEM_GPS",
        "exif_js_status": "GPS_NAO_ENCONTRADO_JS",
        "exif_native_status": "GPS_NAO_ENCONTRADO_NO_EXIF_NATIVO",
        "exif_native_modo_leitura": "FALLBACK_URI"
      }
    ]
  }
}