{
  "type": "FeatureCollection",
  "name": "imagens_pontos",
  "crs": {
    "type": "name",
    "properties": {
      "name": "urn:ogc:def:crs:OGC:1.3:CRS84"
    }
  },
  "features": [
    {
      "type": "Feature",
      "id": "TimePhoto_20260901_075842.jpg",
      "properties": {
        "nome": "TimePhoto_20260901_075842",
        "arquivo": "TimePhoto_20260901_075842.jpg",
        "caminho": "IMGS/TimePhoto_20260901_075842.jpg",
        "lat": -6.501789722222222,
        "lon": -49.70329,
        "latlon": "-6.501790, -49.703290",
        "utm": "22M 643381 9281142",
        "utm_zone": 22,
        "utm_band": "M",
        "utm_easting": 643381,
        "utm_northing": 9281142,
        "utm_hemisphere": "S",
        "data": "01/09/2026",
        "horario": "07:58",
        "legenda": "Arqueólogo monitorando",
        "hash_md5": null,
        "hash_sha256": "af9a771ff6ee9f608a8f8967db1ad74aa44eb4bc31af7cbd8ee665eb98e0ee2a",
        "origem_coordenadas": "ANDROID_EXIF_NATIVE",
        "exif_js_status": "GPS_OK",
        "exif_native_status": "GPS_OK",
        "exif_native_modo_leitura": "SELECTED_URI_PFD",
        "exif_native_seletor": null,
        "exif_native_rotas_tentadas": null,
        "duplicata_local_sha256": false,
        "grupo_duplicata_sha256": ""
      },
      "geometry": {
        "type": "Point",
        "coordinates": [
          -49.70329,
          -6.501789722222222
        ]
      }
    },
    {
      "type": "Feature",
      "id": "TimePhoto_20260901_090849.jpg",
      "properties": {
        "nome": "TimePhoto_20260901_090849",
        "arquivo": "TimePhoto_20260901_090849.jpg",
        "caminho": "IMGS/TimePhoto_20260901_090849.jpg",
        "lat": -6.501678055555556,
        "lon": -49.703570000000006,
        "latlon": "-6.501678, -49.703570",
        "utm": "22M 643351 9281155",
        "utm_zone": 22,
        "utm_band": "M",
        "utm_easting": 643351,
        "utm_northing": 9281155,
        "utm_hemisphere": "S",
        "data": "01/09/2026",
        "horario": "09:08",
        "legenda": "Carregamento de matéria orgânica",
        "hash_md5": null,
        "hash_sha256": "b094230b246ab426c124e293dfe2a9feab26387e557ba2ddfd28c86a638f0ae5",
        "origem_coordenadas": "ANDROID_EXIF_NATIVE",
        "exif_js_status": "GPS_OK",
        "exif_native_status": "GPS_OK",
        "exif_native_modo_leitura": "SELECTED_URI_PFD",
        "exif_native_seletor": null,
        "exif_native_rotas_tentadas": null,
        "duplicata_local_sha256": false,
        "grupo_duplicata_sha256": ""
      },
      "geometry": {
        "type": "Point",
        "coordinates": [
          -49.703570000000006,
          -6.501678055555556
        ]
      }
    },
    {
      "type": "Feature",
      "id": "TimePhoto_20260901_075919.jpg",
      "properties": {
        "nome": "TimePhoto_20260901_075919",
        "arquivo": "TimePhoto_20260901_075919.jpg",
        "caminho": "IMGS/TimePhoto_20260901_075919.jpg",
        "lat": -6.5017483333333335,
        "lon": -49.703273055555556,
        "latlon": "-6.501748, -49.703273",
        "utm": "22M 643383 9281147",
        "utm_zone": 22,
        "utm_band": "M",
        "utm_easting": 643383,
        "utm_northing": 9281147,
        "utm_hemisphere": "S",
        "data": "01/09/2026",
        "horario": "07:59",
        "legenda": "Revolvimento de solo",
        "hash_md5": null,
        "hash_sha256": "e01df5938aab22e3f00bcf42e9b63094e633e56d987aaf5e854b9c4d3cf5798f",
        "origem_coordenadas": "ANDROID_EXIF_NATIVE",
        "exif_js_status": "GPS_OK",
        "exif_native_status": "GPS_OK",
        "exif_native_modo_leitura": "SELECTED_URI_PFD",
        "exif_native_seletor": null,
        "exif_native_rotas_tentadas": null,
        "duplicata_local_sha256": false,
        "grupo_duplicata_sha256": ""
      },
      "geometry": {
        "type": "Point",
        "coordinates": [
          -49.703273055555556,
          -6.5017483333333335
        ]
      }
    },
    {
      "type": "Feature",
      "id": "TimePhoto_20260831_162216.jpg",
      "properties": {
        "nome": "TimePhoto_20260831_162216",
        "arquivo": "TimePhoto_20260831_162216.jpg",
        "caminho": "IMGS/TimePhoto_20260831_162216.jpg",
        "lat": -6.501401666666666,
        "lon": -49.703431388888895,
        "latlon": "-6.501402, -49.703431",
        "utm": "22M 643366 9281185",
        "utm_zone": 22,
        "utm_band": "M",
        "utm_easting": 643366,
        "utm_northing": 9281185,
        "utm_hemisphere": "S",
        "data": "31/08/2026",
        "horario": "16:22",
        "legenda": "Revolvimento de solo",
        "hash_md5": null,
        "hash_sha256": "29ea425c2b37dbca8da3abb1036505814679a7abace5ded2f5a0718545a7b78f",
        "origem_coordenadas": "ANDROID_EXIF_NATIVE",
        "exif_js_status": "GPS_OK",
        "exif_native_status": "GPS_OK",
        "exif_native_modo_leitura": "SELECTED_URI_PFD",
        "exif_native_seletor": null,
        "exif_native_rotas_tentadas": null,
        "duplicata_local_sha256": false,
        "grupo_duplicata_sha256": ""
      },
      "geometry": {
        "type": "Point",
        "coordinates": [
          -49.703431388888895,
          -6.501401666666666
        ]
      }
    }
  ],
  "ficha": {
    "id": "MTIT0O9K",
    "dataCampo": "2026-09-01",
    "horaIni": "07:00",
    "horaFim": "17:00",
    "atividade": "Monitoramento",
    "categoria": "ADA",
    "projeto": "Santa Lúcia ",
    "coordCampo": "Cícero Oliveira ",
    "arqResp": "Cícero Oliveira ",
    "tipoAcao": "Escavação de SUMP e carregamento de matéria orgânica ",
    "clima": "ensolarado",
    "vegetacao": "Floresta manejada",
    "relevo": "Levemente acidentado ",
    "solo": "Latossolo argiloso ",
    "vestigios": "NAO",
    "coleta": "NAO",
    "desc": "Área próximo ao córrego Boqueirão, floresta manejada com predominância de árvores nativas de médio porte e plantas rasteiras como capim e gramíneas.",
    "obs": "Durante acompanhamento das atividades, não evidênciamos materialidade aequeólogica.",
    "modeloDocx": "MONITORAMENTO",
    "status": "DRAFT",
    "imagens_sem_gps": []
  }
}