{
  "type": "FeatureCollection",
  "name": "imagens_pontos",
  "crs": {
    "type": "name",
    "properties": {
      "name": "urn:ogc:def:crs:OGC:1.3:CRS84"
    }
  },
  "features": [
    {
      "type": "Feature",
      "id": "TimePhoto_20260929_105646.jpg",
      "properties": {
        "nome": "TimePhoto_20260929_105646",
        "arquivo": "TimePhoto_20260929_105646.jpg",
        "caminho": "IMGS/TimePhoto_20260929_105646.jpg",
        "lat": -6.50365,
        "lon": -49.701884722222225,
        "latlon": "-6.503650, -49.701885",
        "utm": "22M 643536 9280936",
        "utm_zone": 22,
        "utm_band": "M",
        "utm_easting": 643536,
        "utm_northing": 9280936,
        "utm_hemisphere": "S",
        "data": "29/09/2026",
        "horario": "10:56",
        "legenda": "Acompanhamento de atividade",
        "hash_md5": null,
        "hash_sha256": "cf53647b2d3372fb8961205082c8f2eb7961d32e9ba88f0c5d94bad743354cfe",
        "origem_coordenadas": "ANDROID_EXIF_NATIVE",
        "exif_js_status": "GPS_OK",
        "exif_native_status": "GPS_OK",
        "exif_native_modo_leitura": "SELECTED_URI_PFD",
        "exif_native_seletor": null,
        "exif_native_rotas_tentadas": null,
        "duplicata_local_sha256": false,
        "grupo_duplicata_sha256": ""
      },
      "geometry": {
        "type": "Point",
        "coordinates": [
          -49.701884722222225,
          -6.50365
        ]
      }
    },
    {
      "type": "Feature",
      "id": "TimePhoto_20260929_094543.jpg",
      "properties": {
        "nome": "TimePhoto_20260929_094543",
        "arquivo": "TimePhoto_20260929_094543.jpg",
        "caminho": "IMGS/TimePhoto_20260929_094543.jpg",
        "lat": -6.504469722222222,
        "lon": -49.70219666666667,
        "latlon": "-6.504470, -49.702197",
        "utm": "22M 643502 9280846",
        "utm_zone": 22,
        "utm_band": "M",
        "utm_easting": 643502,
        "utm_northing": 9280846,
        "utm_hemisphere": "S",
        "data": "29/09/2026",
        "horario": "09:45",
        "legenda": "Terraplanagem",
        "hash_md5": null,
        "hash_sha256": "abdb1cac30f95b2eb609dc9864d370e8b69e2942dcc2f8b33b56247ccc766502",
        "origem_coordenadas": "ANDROID_EXIF_NATIVE",
        "exif_js_status": "GPS_OK",
        "exif_native_status": "GPS_OK",
        "exif_native_modo_leitura": "SELECTED_URI_PFD",
        "exif_native_seletor": null,
        "exif_native_rotas_tentadas": null,
        "duplicata_local_sha256": false,
        "grupo_duplicata_sha256": ""
      },
      "geometry": {
        "type": "Point",
        "coordinates": [
          -49.70219666666667,
          -6.504469722222222
        ]
      }
    },
    {
      "type": "Feature",
      "id": "TimePhoto_20260929_101318.jpg",
      "properties": {
        "nome": "TimePhoto_20260929_101318",
        "arquivo": "TimePhoto_20260929_101318.jpg",
        "caminho": "IMGS/TimePhoto_20260929_101318.jpg",
        "lat": -6.503706388888889,
        "lon": -49.70176638888889,
        "latlon": "-6.503706, -49.701766",
        "utm": "22M 643549 9280930",
        "utm_zone": 22,
        "utm_band": "M",
        "utm_easting": 643549,
        "utm_northing": 9280930,
        "utm_hemisphere": "S",
        "data": "29/09/2026",
        "horario": "10:13",
        "legenda": "Carregamento de matéria orgânica",
        "hash_md5": null,
        "hash_sha256": "6b023d4c1db0c7dd69f637bd3ce22082c9fae8be6f576ab5ef420ec2a848504e",
        "origem_coordenadas": "ANDROID_EXIF_NATIVE",
        "exif_js_status": "GPS_OK",
        "exif_native_status": "GPS_OK",
        "exif_native_modo_leitura": "SELECTED_URI_PFD",
        "exif_native_seletor": null,
        "exif_native_rotas_tentadas": null,
        "duplicata_local_sha256": false,
        "grupo_duplicata_sha256": ""
      },
      "geometry": {
        "type": "Point",
        "coordinates": [
          -49.70176638888889,
          -6.503706388888889
        ]
      }
    },
    {
      "type": "Feature",
      "id": "TimePhoto_20260929_083108.jpg",
      "properties": {
        "nome": "TimePhoto_20260929_083108",
        "arquivo": "TimePhoto_20260929_083108.jpg",
        "caminho": "IMGS/TimePhoto_20260929_083108.jpg",
        "lat": -6.504366388888889,
        "lon": -49.70203805555556,
        "latlon": "-6.504366, -49.702038",
        "utm": "22M 643519 9280857",
        "utm_zone": 22,
        "utm_band": "M",
        "utm_easting": 643519,
        "utm_northing": 9280857,
        "utm_hemisphere": "S",
        "data": "29/09/2026",
        "horario": "08:31",
        "legenda": "Averiguação de área",
        "hash_md5": null,
        "hash_sha256": "b60a34fc02dec1bf97e8eed40b1e9057ab1f52964f848a3f89bb17bfff45ad9c",
        "origem_coordenadas": "ANDROID_EXIF_NATIVE",
        "exif_js_status": "GPS_OK",
        "exif_native_status": "GPS_OK",
        "exif_native_modo_leitura": "SELECTED_URI_PFD",
        "exif_native_seletor": null,
        "exif_native_rotas_tentadas": null,
        "duplicata_local_sha256": false,
        "grupo_duplicata_sha256": ""
      },
      "geometry": {
        "type": "Point",
        "coordinates": [
          -49.70203805555556,
          -6.504366388888889
        ]
      }
    }
  ],
  "ficha": {
    "id": "MUONXQLN",
    "dataCampo": "2026-09-30",
    "horaIni": "07:00",
    "horaFim": "17:00",
    "atividade": "Monitoramento",
    "categoria": "ADA",
    "projeto": "Santa Lúcia ",
    "coordCampo": "Cícero Oliveira ",
    "arqResp": "Cícero Oliveira ",
    "tipoAcao": "Corte de terreno, terraplanagem e carregamento de matéria orgânica ",
    "clima": "ensolarado",
    "vegetacao": "Capim e gramíneas ",
    "relevo": "Levemente acidentado ",
    "solo": "Latossolo argiloso ",
    "vestigios": "NAO",
    "coleta": "NAO",
    "desc": "Área de pastagem, vegetação onde predominam, capim e gramíneas.",
    "obs": "Durante acompanhamento das atividades, não evidênciamos materialidade aequeólogica.",
    "modeloDocx": "MONITORAMENTO",
    "status": "DRAFT",
    "imagens_sem_gps": []
  }
}