{
  "type": "FeatureCollection",
  "name": "imagens_pontos",
  "crs": {
    "type": "name",
    "properties": {
      "name": "urn:ogc:def:crs:OGC:1.3:CRS84"
    }
  },
  "features": [
    {
      "type": "Feature",
      "id": "TimePhoto_20260924_093030.jpg",
      "properties": {
        "nome": "TimePhoto_20260924_093030",
        "arquivo": "TimePhoto_20260924_093030.jpg",
        "caminho": "IMGS/TimePhoto_20260924_093030.jpg",
        "lat": -6.505513055555555,
        "lon": -49.701710000000006,
        "latlon": "-6.505513, -49.701710",
        "utm": "22M 643555 9280730",
        "utm_zone": 22,
        "utm_band": "M",
        "utm_easting": 643555,
        "utm_northing": 9280730,
        "utm_hemisphere": "S",
        "data": "24/09/2026",
        "horario": "09:30",
        "legenda": "Carregamento de matéria orgânica",
        "hash_md5": null,
        "hash_sha256": "d69025609a38d8dade6f51caaa5d72b332f106af4fb4f19f48eb2e032be4e9bf",
        "origem_coordenadas": "ANDROID_EXIF_NATIVE",
        "exif_js_status": "GPS_OK",
        "exif_native_status": "GPS_OK",
        "exif_native_modo_leitura": "SELECTED_URI_PFD",
        "exif_native_seletor": null,
        "exif_native_rotas_tentadas": null,
        "duplicata_local_sha256": false,
        "grupo_duplicata_sha256": ""
      },
      "geometry": {
        "type": "Point",
        "coordinates": [
          -49.701710000000006,
          -6.505513055555555
        ]
      }
    },
    {
      "type": "Feature",
      "id": "TimePhoto_20260924_085627.jpg",
      "properties": {
        "nome": "TimePhoto_20260924_085627",
        "arquivo": "TimePhoto_20260924_085627.jpg",
        "caminho": "IMGS/TimePhoto_20260924_085627.jpg",
        "lat": -6.504704722222222,
        "lon": -49.702379722222226,
        "latlon": "-6.504705, -49.702380",
        "utm": "22M 643481 9280820",
        "utm_zone": 22,
        "utm_band": "M",
        "utm_easting": 643481,
        "utm_northing": 9280820,
        "utm_hemisphere": "S",
        "data": "24/09/2026",
        "horario": "08:56",
        "legenda": "Acompanhamento de atividade",
        "hash_md5": null,
        "hash_sha256": "d1855233b26cba8f5e3f1b90ecb4430ec284db287cc777cab216241ab8152112",
        "origem_coordenadas": "ANDROID_EXIF_NATIVE",
        "exif_js_status": "GPS_OK",
        "exif_native_status": "GPS_OK",
        "exif_native_modo_leitura": "SELECTED_URI_PFD",
        "exif_native_seletor": null,
        "exif_native_rotas_tentadas": null,
        "duplicata_local_sha256": false,
        "grupo_duplicata_sha256": ""
      },
      "geometry": {
        "type": "Point",
        "coordinates": [
          -49.702379722222226,
          -6.504704722222222
        ]
      }
    },
    {
      "type": "Feature",
      "id": "TimePhoto_20260924_084959.jpg",
      "properties": {
        "nome": "TimePhoto_20260924_084959",
        "arquivo": "TimePhoto_20260924_084959.jpg",
        "caminho": "IMGS/TimePhoto_20260924_084959.jpg",
        "lat": -6.50384,
        "lon": -49.70228,
        "latlon": "-6.503840, -49.702280",
        "utm": "22M 643493 9280915",
        "utm_zone": 22,
        "utm_band": "M",
        "utm_easting": 643493,
        "utm_northing": 9280915,
        "utm_hemisphere": "S",
        "data": "24/09/2026",
        "horario": "08:49",
        "legenda": "Revolvimento de solo",
        "hash_md5": null,
        "hash_sha256": "99894895edd7e937199ea941334950c7ba68aac7f3ed20a4d4d02b00509996d6",
        "origem_coordenadas": "ANDROID_EXIF_NATIVE",
        "exif_js_status": "GPS_OK",
        "exif_native_status": "GPS_OK",
        "exif_native_modo_leitura": "SELECTED_URI_PFD",
        "exif_native_seletor": null,
        "exif_native_rotas_tentadas": null,
        "duplicata_local_sha256": false,
        "grupo_duplicata_sha256": ""
      },
      "geometry": {
        "type": "Point",
        "coordinates": [
          -49.70228,
          -6.50384
        ]
      }
    },
    {
      "type": "Feature",
      "id": "TimePhoto_20260924_084403.jpg",
      "properties": {
        "nome": "TimePhoto_20260924_084403",
        "arquivo": "TimePhoto_20260924_084403.jpg",
        "caminho": "IMGS/TimePhoto_20260924_084403.jpg",
        "lat": -6.503961666666667,
        "lon": -49.701755000000006,
        "latlon": "-6.503962, -49.701755",
        "utm": "22M 643551 9280902",
        "utm_zone": 22,
        "utm_band": "M",
        "utm_easting": 643551,
        "utm_northing": 9280902,
        "utm_hemisphere": "S",
        "data": "24/09/2026",
        "horario": "08:44",
        "legenda": "Revolvimento de solo",
        "hash_md5": null,
        "hash_sha256": "c9a83766d40105ead484855254591a2ef3c03e5f55fcca902f26de2fee8d14ab",
        "origem_coordenadas": "ANDROID_EXIF_NATIVE",
        "exif_js_status": "GPS_OK",
        "exif_native_status": "GPS_OK",
        "exif_native_modo_leitura": "SELECTED_URI_PFD",
        "exif_native_seletor": null,
        "exif_native_rotas_tentadas": null,
        "duplicata_local_sha256": false,
        "grupo_duplicata_sha256": ""
      },
      "geometry": {
        "type": "Point",
        "coordinates": [
          -49.701755000000006,
          -6.503961666666667
        ]
      }
    }
  ],
  "ficha": {
    "id": "MUIIAMFQ",
    "dataCampo": "2026-09-26",
    "horaIni": "07:00",
    "horaFim": "17:00",
    "atividade": "Monitoramento",
    "categoria": "ADA",
    "projeto": "Santa Lúcia ",
    "coordCampo": "Cícero Oliveira ",
    "arqResp": "Cícero Oliveira ",
    "tipoAcao": "Supressão de vegetação ",
    "clima": "ensolarado",
    "vegetacao": "Predominantemente capim e gramíneas ",
    "relevo": "Levemente acidentado ",
    "solo": "Latossolo argiloso ",
    "vestigios": "NAO",
    "coleta": "NAO",
    "desc": "Área de passagem com entorno composto por árvores nativas secundária, também capim e gramíneas.",
    "obs": "Durante acompanhamento das atividades, não evidênciamos materialidade aequeólogica.",
    "modeloDocx": "MONITORAMENTO",
    "status": "DRAFT",
    "imagens_sem_gps": []
  }
}