{
  "type": "FeatureCollection",
  "name": "imagens_pontos",
  "crs": {
    "type": "name",
    "properties": {
      "name": "urn:ogc:def:crs:OGC:1.3:CRS84"
    }
  },
  "features": [
    {
      "type": "Feature",
      "id": "TimePhoto_20260810_100522.jpg",
      "properties": {
        "nome": "TimePhoto_20260810_100522",
        "arquivo": "TimePhoto_20260810_100522.jpg",
        "caminho": "IMGS/TimePhoto_20260810_100522.jpg",
        "lat": -6.519883055555556,
        "lon": -49.70738805555556,
        "latlon": "-6.519883, -49.707388",
        "utm": "22M 642923 9279143",
        "utm_zone": 22,
        "utm_band": "M",
        "utm_easting": 642923,
        "utm_northing": 9279143,
        "utm_hemisphere": "S",
        "data": "10/08/2026",
        "horario": "10:05",
        "legenda": "Acompanhamento de atividade",
        "hash_md5": null,
        "hash_sha256": "36fc9c4759fcbe8ee26e3d2702fed38e831f61b94a18ac357b45af420c6feae3",
        "origem_coordenadas": "ANDROID_EXIF_NATIVE",
        "exif_js_status": "GPS_OK",
        "exif_native_status": "GPS_OK",
        "exif_native_modo_leitura": "SELECTED_URI_PFD",
        "exif_native_seletor": null,
        "exif_native_rotas_tentadas": null,
        "duplicata_local_sha256": false,
        "grupo_duplicata_sha256": ""
      },
      "geometry": {
        "type": "Point",
        "coordinates": [
          -49.70738805555556,
          -6.519883055555556
        ]
      }
    },
    {
      "type": "Feature",
      "id": "TimePhoto_20260810_100559.jpg",
      "properties": {
        "nome": "TimePhoto_20260810_100559",
        "arquivo": "TimePhoto_20260810_100559.jpg",
        "caminho": "IMGS/TimePhoto_20260810_100559.jpg",
        "lat": -6.5198897222222225,
        "lon": -49.70738805555556,
        "latlon": "-6.519890, -49.707388",
        "utm": "22M 642923 9279142",
        "utm_zone": 22,
        "utm_band": "M",
        "utm_easting": 642923,
        "utm_northing": 9279142,
        "utm_hemisphere": "S",
        "data": "10/08/2026",
        "horario": "10:05",
        "legenda": "Revolvimento de solo",
        "hash_md5": null,
        "hash_sha256": "c62ffc8afc4c0f4eb3a03d89b28c5339d02629ada6473e88f7371d1ea7c58966",
        "origem_coordenadas": "ANDROID_EXIF_NATIVE",
        "exif_js_status": "GPS_OK",
        "exif_native_status": "GPS_OK",
        "exif_native_modo_leitura": "SELECTED_URI_PFD",
        "exif_native_seletor": null,
        "exif_native_rotas_tentadas": null,
        "duplicata_local_sha256": false,
        "grupo_duplicata_sha256": ""
      },
      "geometry": {
        "type": "Point",
        "coordinates": [
          -49.70738805555556,
          -6.5198897222222225
        ]
      }
    },
    {
      "type": "Feature",
      "id": "TimePhoto_20260810_100606.jpg",
      "properties": {
        "nome": "TimePhoto_20260810_100606",
        "arquivo": "TimePhoto_20260810_100606.jpg",
        "caminho": "IMGS/TimePhoto_20260810_100606.jpg",
        "lat": -6.5198897222222225,
        "lon": -49.70738805555556,
        "latlon": "-6.519890, -49.707388",
        "utm": "22M 642923 9279142",
        "utm_zone": 22,
        "utm_band": "M",
        "utm_easting": 642923,
        "utm_northing": 9279142,
        "utm_hemisphere": "S",
        "data": "10/08/2026",
        "horario": "10:06",
        "legenda": "Carregamento de matéria orgânica",
        "hash_md5": null,
        "hash_sha256": "4e3aeae7e57a0ea7c9b5edc6adba33ee7b3b9120a56f3d3bb238fe2638d09d4c",
        "origem_coordenadas": "ANDROID_EXIF_NATIVE",
        "exif_js_status": "GPS_OK",
        "exif_native_status": "GPS_OK",
        "exif_native_modo_leitura": "SELECTED_URI_PFD",
        "exif_native_seletor": null,
        "exif_native_rotas_tentadas": null,
        "duplicata_local_sha256": false,
        "grupo_duplicata_sha256": ""
      },
      "geometry": {
        "type": "Point",
        "coordinates": [
          -49.70738805555556,
          -6.5198897222222225
        ]
      }
    },
    {
      "type": "Feature",
      "id": "TimePhoto_20260806_092359.jpg",
      "properties": {
        "nome": "TimePhoto_20260806_092359",
        "arquivo": "TimePhoto_20260806_092359.jpg",
        "caminho": "IMGS/TimePhoto_20260806_092359.jpg",
        "lat": -6.520851388888889,
        "lon": -49.707415000000005,
        "latlon": "-6.520851, -49.707415",
        "utm": "22M 642920 9279036",
        "utm_zone": 22,
        "utm_band": "M",
        "utm_easting": 642920,
        "utm_northing": 9279036,
        "utm_hemisphere": "S",
        "data": "06/08/2026",
        "horario": "09:23",
        "legenda": "Análise de perfil",
        "hash_md5": null,
        "hash_sha256": "a11f9cd642d5ba1da51eab9684bb9d0e3b6438e02904ce399b558874ea0fcb56",
        "origem_coordenadas": "ANDROID_EXIF_NATIVE",
        "exif_js_status": "GPS_OK",
        "exif_native_status": "GPS_OK",
        "exif_native_modo_leitura": "SELECTED_URI_PFD",
        "exif_native_seletor": null,
        "exif_native_rotas_tentadas": null,
        "duplicata_local_sha256": false,
        "grupo_duplicata_sha256": ""
      },
      "geometry": {
        "type": "Point",
        "coordinates": [
          -49.707415000000005,
          -6.520851388888889
        ]
      }
    }
  ],
  "ficha": {
    "id": "MSOP60AQ",
    "dataCampo": "2026-08-11",
    "horaIni": "07:00",
    "horaFim": "17:00",
    "atividade": "Monitoramento",
    "categoria": "ADA",
    "projeto": "Santa Lúcia ",
    "coordCampo": "Cícero Oliveira ",
    "arqResp": "Cícero Oliveira ",
    "tipoAcao": "Cícero Oliveira ",
    "clima": "ensolarado",
    "vegetacao": "Área de pastagem ",
    "relevo": "Levemente acidentado ",
    "solo": "Latossolo argiloso ",
    "vestigios": "NAO",
    "coleta": "NAO",
    "desc": "Área de pastagem com capim e gramíneas.",
    "obs": "Durante acompanhamento das atividades, não evidênciamos materialidade aequeólogica.",
    "modeloDocx": "MONITORAMENTO",
    "status": "DRAFT",
    "imagens_sem_gps": []
  }
}