{
  "type": "FeatureCollection",
  "name": "imagens_pontos",
  "crs": {
    "type": "name",
    "properties": {
      "name": "urn:ogc:def:crs:OGC:1.3:CRS84"
    }
  },
  "features": [
    {
      "type": "Feature",
      "id": "TimePhoto_20260929_083101.jpg",
      "properties": {
        "nome": "TimePhoto_20260929_083101",
        "arquivo": "TimePhoto_20260929_083101.jpg",
        "caminho": "IMGS/TimePhoto_20260929_083101.jpg",
        "lat": -6.504386388888889,
        "lon": -49.70203472222222,
        "latlon": "-6.504386, -49.702035",
        "utm": "22M 643520 9280855",
        "utm_zone": 22,
        "utm_band": "M",
        "utm_easting": 643520,
        "utm_northing": 9280855,
        "utm_hemisphere": "S",
        "data": "29/09/2026",
        "horario": "08:31",
        "legenda": "Caminhamento",
        "hash_md5": null,
        "hash_sha256": "08fcd68b575f2cdfdddf79676e26b5a68a786ea9960af4b846b16c2b775295fe",
        "origem_coordenadas": "ANDROID_EXIF_NATIVE",
        "exif_js_status": "GPS_OK",
        "exif_native_status": "GPS_OK",
        "exif_native_modo_leitura": "SELECTED_URI_PFD",
        "exif_native_seletor": null,
        "exif_native_rotas_tentadas": null,
        "duplicata_local_sha256": false,
        "grupo_duplicata_sha256": ""
      },
      "geometry": {
        "type": "Point",
        "coordinates": [
          -49.70203472222222,
          -6.504386388888889
        ]
      }
    },
    {
      "type": "Feature",
      "id": "TimePhoto_20260929_091928.jpg",
      "properties": {
        "nome": "TimePhoto_20260929_091928",
        "arquivo": "TimePhoto_20260929_091928.jpg",
        "caminho": "IMGS/TimePhoto_20260929_091928.jpg",
        "lat": -6.503613333333333,
        "lon": -49.70178305555556,
        "latlon": "-6.503613, -49.701783",
        "utm": "22M 643548 9280940",
        "utm_zone": 22,
        "utm_band": "M",
        "utm_easting": 643548,
        "utm_northing": 9280940,
        "utm_hemisphere": "S",
        "data": "29/09/2026",
        "horario": "09:19",
        "legenda": "Revolvimento de solo",
        "hash_md5": null,
        "hash_sha256": "d6a9532f6b82a71f168525ced0b4da2c6165bd091d8a0eba6794df7e21a18d96",
        "origem_coordenadas": "ANDROID_EXIF_NATIVE",
        "exif_js_status": "GPS_OK",
        "exif_native_status": "GPS_OK",
        "exif_native_modo_leitura": "SELECTED_URI_PFD",
        "exif_native_seletor": null,
        "exif_native_rotas_tentadas": null,
        "duplicata_local_sha256": false,
        "grupo_duplicata_sha256": ""
      },
      "geometry": {
        "type": "Point",
        "coordinates": [
          -49.70178305555556,
          -6.503613333333333
        ]
      }
    },
    {
      "type": "Feature",
      "id": "TimePhoto_20260929_092047.jpg",
      "properties": {
        "nome": "TimePhoto_20260929_092047",
        "arquivo": "TimePhoto_20260929_092047.jpg",
        "caminho": "IMGS/TimePhoto_20260929_092047.jpg",
        "lat": -6.503623055555556,
        "lon": -49.70174305555556,
        "latlon": "-6.503623, -49.701743",
        "utm": "22M 643552 9280939",
        "utm_zone": 22,
        "utm_band": "M",
        "utm_easting": 643552,
        "utm_northing": 9280939,
        "utm_hemisphere": "S",
        "data": "29/09/2026",
        "horario": "09:20",
        "legenda": "Perfil/acompanhamento",
        "hash_md5": null,
        "hash_sha256": "2c981b12dd84601e697913542bc2ec231a0a48edc738e0bea2782532dc03dba7",
        "origem_coordenadas": "ANDROID_EXIF_NATIVE",
        "exif_js_status": "GPS_OK",
        "exif_native_status": "GPS_OK",
        "exif_native_modo_leitura": "SELECTED_URI_PFD",
        "exif_native_seletor": null,
        "exif_native_rotas_tentadas": null,
        "duplicata_local_sha256": false,
        "grupo_duplicata_sha256": ""
      },
      "geometry": {
        "type": "Point",
        "coordinates": [
          -49.70174305555556,
          -6.503623055555556
        ]
      }
    },
    {
      "type": "Feature",
      "id": "TimePhoto_20260929_094324.jpg",
      "properties": {
        "nome": "TimePhoto_20260929_094324",
        "arquivo": "TimePhoto_20260929_094324.jpg",
        "caminho": "IMGS/TimePhoto_20260929_094324.jpg",
        "lat": -6.503714722222222,
        "lon": -49.70180972222222,
        "latlon": "-6.503715, -49.701810",
        "utm": "22M 643545 9280929",
        "utm_zone": 22,
        "utm_band": "M",
        "utm_easting": 643545,
        "utm_northing": 9280929,
        "utm_hemisphere": "S",
        "data": "29/09/2026",
        "horario": "09:43",
        "legenda": "Perfil estratigráfico",
        "hash_md5": null,
        "hash_sha256": "5409de9f2d1b16a654f1feb4d7030737114fad56efbd118d3182f975915e816e",
        "origem_coordenadas": "ANDROID_EXIF_NATIVE",
        "exif_js_status": "GPS_OK",
        "exif_native_status": "GPS_OK",
        "exif_native_modo_leitura": "SELECTED_URI_PFD",
        "exif_native_seletor": null,
        "exif_native_rotas_tentadas": null,
        "duplicata_local_sha256": false,
        "grupo_duplicata_sha256": ""
      },
      "geometry": {
        "type": "Point",
        "coordinates": [
          -49.70180972222222,
          -6.503714722222222
        ]
      }
    }
  ],
  "ficha": {
    "id": "MUMYRLR4",
    "dataCampo": "2026-09-29",
    "horaIni": "07:00",
    "horaFim": "17:00",
    "atividade": "Monitoramento",
    "categoria": "ADA",
    "projeto": "Santa Lúcia ",
    "coordCampo": "Cícero Oliveira ",
    "arqResp": "Cícero Oliveira ",
    "tipoAcao": "Corte de terreno, terraplanagem e carregamento de matéria orgânica ",
    "clima": "ensolarado",
    "vegetacao": "Capim e gramíneas ",
    "relevo": "Levemente acidentado ",
    "solo": "Latossolo argiloso ",
    "vestigios": "NAO",
    "coleta": "NAO",
    "desc": "Área de pastagem com vegetação predominantemente capim e gramíneas.",
    "obs": "Durante acompanhamento das atividades, não evidênciamos materialidade aequeólogica.",
    "modeloDocx": "MONITORAMENTO",
    "status": "DRAFT",
    "imagens_sem_gps": []
  }
}