{
  "type": "FeatureCollection",
  "name": "imagens_pontos",
  "crs": {
    "type": "name",
    "properties": {
      "name": "urn:ogc:def:crs:OGC:1.3:CRS84"
    }
  },
  "features": [],
  "ficha": {
    "id": "MS848TOM",
    "dataCampo": "2026-07-30",
    "horaIni": "07:00",
    "horaFim": "17:00",
    "atividade": "Monitoramento",
    "categoria": "ADA",
    "projeto": "Santa Lúcia ",
    "coordCampo": "Cícero Oliveira ",
    "arqResp": "Cícero Oliveira ",
    "tipoAcao": "Abertura de vala para filtragem hídrica ",
    "clima": "ensolarado",
    "vegetacao": "Área de pastagem com lago no entorno ",
    "relevo": "Levemente acidentado ",
    "solo": "Latossolo argiloso ",
    "vestigios": "NAO",
    "coleta": "NAO",
    "desc": "Área de pastagem com lago no entorno e vegetal composta por capim e gramíneas ",
    "obs": "Durante acompanhamento das atividades, não evidênciamos materialidade aequeólogica.",
    "modeloDocx": "MONITORAMENTO",
    "status": "DRAFT",
    "imagens_sem_gps": [
      {
        "nome": "20260730_084936",
        "arquivo": "20260730_084936.jpg",
        "caminho": "IMGS/20260730_084936.jpg",
        "data": "30/07/2026",
        "horario": "08:49",
        "legenda": "Acompanhamento de atividade ",
        "hash_sha256": "27a8ce8210e18d2198c29841cfb2e7f8daf588e738d06d47c5c61e4db4704d3a",
        "origem_coordenadas": "SEM_GPS",
        "exif_js_status": "GPS_NAO_ENCONTRADO_JS",
        "exif_native_status": "GPS_NAO_ENCONTRADO_NO_EXIF_NATIVO",
        "exif_native_modo_leitura": "FALLBACK_URI"
      },
      {
        "nome": "20260730_084816",
        "arquivo": "20260730_084816.jpg",
        "caminho": "IMGS/20260730_084816.jpg",
        "data": "30/07/2026",
        "horario": "08:48",
        "legenda": "Revolvimento de solo ",
        "hash_sha256": "9fb1039788fbf0976fe019415fa69172c5384230fc25eb48ea14353bb7feb9ee",
        "origem_coordenadas": "SEM_GPS",
        "exif_js_status": "GPS_NAO_ENCONTRADO_JS",
        "exif_native_status": "GPS_NAO_ENCONTRADO_NO_EXIF_NATIVO",
        "exif_native_modo_leitura": "FALLBACK_URI"
      },
      {
        "nome": "20260730_084953",
        "arquivo": "20260730_084953.jpg",
        "caminho": "IMGS/20260730_084953.jpg",
        "data": "30/07/2026",
        "horario": "08:49",
        "legenda": "Averiguação na área revolvida",
        "hash_sha256": "b68bf25232365ee9364eed97b2a276bb633f69d54fceafb2101c9a4a6db481b3",
        "origem_coordenadas": "SEM_GPS",
        "exif_js_status": "GPS_NAO_ENCONTRADO_JS",
        "exif_native_status": "GPS_NAO_ENCONTRADO_NO_EXIF_NATIVO",
        "exif_native_modo_leitura": "FALLBACK_URI"
      },
      {
        "nome": "20260730_084959",
        "arquivo": "20260730_084959.jpg",
        "caminho": "IMGS/20260730_084959.jpg",
        "data": "30/07/2026",
        "horario": "08:49",
        "legenda": "Acompanhamento na área revolvida ",
        "hash_sha256": "ce030ad6250e64aa9d385f3acce0ed3078e461e4d0b060b7c19b6da12c82c85c",
        "origem_coordenadas": "SEM_GPS",
        "exif_js_status": "GPS_NAO_ENCONTRADO_JS",
        "exif_native_status": "GPS_NAO_ENCONTRADO_NO_EXIF_NATIVO",
        "exif_native_modo_leitura": "FALLBACK_URI"
      }
    ]
  }
}