{
  "type": "FeatureCollection",
  "name": "imagens_pontos",
  "crs": {
    "type": "name",
    "properties": {
      "name": "urn:ogc:def:crs:OGC:1.3:CRS84"
    }
  },
  "features": [
    {
      "type": "Feature",
      "id": "TimePhoto_20260924_093035.jpg",
      "properties": {
        "nome": "TimePhoto_20260924_093035",
        "arquivo": "TimePhoto_20260924_093035.jpg",
        "caminho": "IMGS/TimePhoto_20260924_093035.jpg",
        "lat": -6.505496388888889,
        "lon": -49.70171305555556,
        "latlon": "-6.505496, -49.701713",
        "utm": "22M 643555 9280732",
        "utm_zone": 22,
        "utm_band": "M",
        "utm_easting": 643555,
        "utm_northing": 9280732,
        "utm_hemisphere": "S",
        "data": "24/09/2026",
        "horario": "09:30",
        "legenda": "Carregamento de matéria orgânica",
        "hash_md5": null,
        "hash_sha256": "20084d30ce04af172d86b9367af63fdd7bb86b25239ccc24529374de59905f47",
        "origem_coordenadas": "ANDROID_EXIF_NATIVE",
        "exif_js_status": "GPS_OK",
        "exif_native_status": "GPS_OK",
        "exif_native_modo_leitura": "SELECTED_URI_PFD",
        "exif_native_seletor": null,
        "exif_native_rotas_tentadas": null,
        "duplicata_local_sha256": false,
        "grupo_duplicata_sha256": ""
      },
      "geometry": {
        "type": "Point",
        "coordinates": [
          -49.70171305555556,
          -6.505496388888889
        ]
      }
    },
    {
      "type": "Feature",
      "id": "TimePhoto_20260924_085842.jpg",
      "properties": {
        "nome": "TimePhoto_20260924_085842",
        "arquivo": "TimePhoto_20260924_085842.jpg",
        "caminho": "IMGS/TimePhoto_20260924_085842.jpg",
        "lat": -6.504781388888889,
        "lon": -49.70240666666667,
        "latlon": "-6.504781, -49.702407",
        "utm": "22M 643478 9280811",
        "utm_zone": 22,
        "utm_band": "M",
        "utm_easting": 643478,
        "utm_northing": 9280811,
        "utm_hemisphere": "S",
        "data": "24/09/2026",
        "horario": "08:58",
        "legenda": "Acompanhamento de atividade",
        "hash_md5": null,
        "hash_sha256": "7d73fac10b9bf19c2762f9d9776355ceedbe4d30ce9aa3cf1ed11753a7c6c508",
        "origem_coordenadas": "ANDROID_EXIF_NATIVE",
        "exif_js_status": "GPS_OK",
        "exif_native_status": "GPS_OK",
        "exif_native_modo_leitura": "SELECTED_URI_PFD",
        "exif_native_seletor": null,
        "exif_native_rotas_tentadas": null,
        "duplicata_local_sha256": false,
        "grupo_duplicata_sha256": ""
      },
      "geometry": {
        "type": "Point",
        "coordinates": [
          -49.70240666666667,
          -6.504781388888889
        ]
      }
    },
    {
      "type": "Feature",
      "id": "TimePhoto_20260924_092509.jpg",
      "properties": {
        "nome": "TimePhoto_20260924_092509",
        "arquivo": "TimePhoto_20260924_092509.jpg",
        "caminho": "IMGS/TimePhoto_20260924_092509.jpg",
        "lat": -6.505693055555556,
        "lon": -49.701954722222226,
        "latlon": "-6.505693, -49.701955",
        "utm": "22M 643528 9280710",
        "utm_zone": 22,
        "utm_band": "M",
        "utm_easting": 643528,
        "utm_northing": 9280710,
        "utm_hemisphere": "S",
        "data": "24/09/2026",
        "horario": "09:25",
        "legenda": "Supressão da vegetação",
        "hash_md5": null,
        "hash_sha256": "d06def4696b8826b9733fdad351b71b8d8c4d13cbc7b2c945b701e9f7f691128",
        "origem_coordenadas": "ANDROID_EXIF_NATIVE",
        "exif_js_status": "GPS_OK",
        "exif_native_status": "GPS_OK",
        "exif_native_modo_leitura": "SELECTED_URI_PFD",
        "exif_native_seletor": null,
        "exif_native_rotas_tentadas": null,
        "duplicata_local_sha256": false,
        "grupo_duplicata_sha256": ""
      },
      "geometry": {
        "type": "Point",
        "coordinates": [
          -49.701954722222226,
          -6.505693055555556
        ]
      }
    },
    {
      "type": "Feature",
      "id": "TimePhoto_20260924_085621.jpg",
      "properties": {
        "nome": "TimePhoto_20260924_085621",
        "arquivo": "TimePhoto_20260924_085621.jpg",
        "caminho": "IMGS/TimePhoto_20260924_085621.jpg",
        "lat": -6.504696388888889,
        "lon": -49.70240305555556,
        "latlon": "-6.504696, -49.702403",
        "utm": "22M 643479 9280821",
        "utm_zone": 22,
        "utm_band": "M",
        "utm_easting": 643479,
        "utm_northing": 9280821,
        "utm_hemisphere": "S",
        "data": "24/09/2026",
        "horario": "08:56",
        "legenda": "Supressão da vegetação",
        "hash_md5": null,
        "hash_sha256": "6567acb4ed81e4ffeec5cd897011411eeb3fd1de0243d0ac5dc501a3a18693b4",
        "origem_coordenadas": "ANDROID_EXIF_NATIVE",
        "exif_js_status": "GPS_OK",
        "exif_native_status": "GPS_OK",
        "exif_native_modo_leitura": "SELECTED_URI_PFD",
        "exif_native_seletor": null,
        "exif_native_rotas_tentadas": null,
        "duplicata_local_sha256": false,
        "grupo_duplicata_sha256": ""
      },
      "geometry": {
        "type": "Point",
        "coordinates": [
          -49.70240305555556,
          -6.504696388888889
        ]
      }
    }
  ],
  "ficha": {
    "id": "MUG352AE",
    "dataCampo": "2026-09-24",
    "horaIni": "07:00",
    "horaFim": "17:00",
    "atividade": "Monitoramento",
    "categoria": "ADA",
    "projeto": "Santa Lúcia ",
    "coordCampo": "Cícero Oliveira ",
    "arqResp": "Cícero Oliveira ",
    "tipoAcao": "Remoção de camada vegetal ",
    "clima": "ensolarado",
    "vegetacao": "Capim e gramíneas ",
    "relevo": "Levemente acidentado ",
    "solo": "Latossolo argiloso ",
    "vestigios": "NAO",
    "coleta": "NAO",
    "desc": "Área de pastagem composta por capin, gramíneas e jurubeba.",
    "obs": "Durante acompanhamento das atividades, não evidênciamos materialidade aequeólogica.",
    "modeloDocx": "MONITORAMENTO",
    "status": "DRAFT",
    "imagens_sem_gps": []
  }
}