{
  "type": "FeatureCollection",
  "name": "imagens_pontos",
  "crs": {
    "type": "name",
    "properties": {
      "name": "urn:ogc:def:crs:OGC:1.3:CRS84"
    }
  },
  "features": [
    {
      "type": "Feature",
      "id": "TimePhoto_20261001_084156.jpg",
      "properties": {
        "nome": "TimePhoto_20261001_084156",
        "arquivo": "TimePhoto_20261001_084156.jpg",
        "caminho": "IMGS/TimePhoto_20261001_084156.jpg",
        "lat": -6.5038213888888885,
        "lon": -49.70176166666667,
        "latlon": "-6.503821, -49.701762",
        "utm": "22M 643550 9280917",
        "utm_zone": 22,
        "utm_band": "M",
        "utm_easting": 643550,
        "utm_northing": 9280917,
        "utm_hemisphere": "S",
        "data": "01/10/2026",
        "horario": "08:41",
        "legenda": "Acompanhamento de atividade",
        "hash_md5": null,
        "hash_sha256": "ab8b14601167a90f1e85967fbc0acaf44c4956dc9143cc31792ca2db59c4845d",
        "origem_coordenadas": "ANDROID_EXIF_NATIVE",
        "exif_js_status": "GPS_OK",
        "exif_native_status": "GPS_OK",
        "exif_native_modo_leitura": "SELECTED_URI_PFD",
        "exif_native_seletor": null,
        "exif_native_rotas_tentadas": null,
        "duplicata_local_sha256": false,
        "grupo_duplicata_sha256": ""
      },
      "geometry": {
        "type": "Point",
        "coordinates": [
          -49.70176166666667,
          -6.5038213888888885
        ]
      }
    },
    {
      "type": "Feature",
      "id": "TimePhoto_20261001_084139.jpg",
      "properties": {
        "nome": "TimePhoto_20261001_084139",
        "arquivo": "TimePhoto_20261001_084139.jpg",
        "caminho": "IMGS/TimePhoto_20261001_084139.jpg",
        "lat": -6.503863333333333,
        "lon": -49.70177833333334,
        "latlon": "-6.503863, -49.701778",
        "utm": "22M 643548 9280913",
        "utm_zone": 22,
        "utm_band": "M",
        "utm_easting": 643548,
        "utm_northing": 9280913,
        "utm_hemisphere": "S",
        "data": "01/10/2026",
        "horario": "08:41",
        "legenda": "Carregamento de matéria orgânica",
        "hash_md5": null,
        "hash_sha256": "954f5276c0d0af66e27a95c1758be1a72b6fb4a2320a6adc1dba6f559d96721e",
        "origem_coordenadas": "ANDROID_EXIF_NATIVE",
        "exif_js_status": "GPS_OK",
        "exif_native_status": "GPS_OK",
        "exif_native_modo_leitura": "SELECTED_URI_PFD",
        "exif_native_seletor": null,
        "exif_native_rotas_tentadas": null,
        "duplicata_local_sha256": false,
        "grupo_duplicata_sha256": ""
      },
      "geometry": {
        "type": "Point",
        "coordinates": [
          -49.70177833333334,
          -6.503863333333333
        ]
      }
    },
    {
      "type": "Feature",
      "id": "TimePhoto_20261001_082444.jpg",
      "properties": {
        "nome": "TimePhoto_20261001_082444",
        "arquivo": "TimePhoto_20261001_082444.jpg",
        "caminho": "IMGS/TimePhoto_20261001_082444.jpg",
        "lat": -6.504716666666667,
        "lon": -49.70239333333333,
        "latlon": "-6.504717, -49.702393",
        "utm": "22M 643480 9280818",
        "utm_zone": 22,
        "utm_band": "M",
        "utm_easting": 643480,
        "utm_northing": 9280818,
        "utm_hemisphere": "S",
        "data": "01/10/2026",
        "horario": "08:24",
        "legenda": "Compactação de solo",
        "hash_md5": null,
        "hash_sha256": "118c610ac9a31a1e90554ca6f5025e54ed9d96f40c4b67c0ac432d255b670e46",
        "origem_coordenadas": "ANDROID_EXIF_NATIVE",
        "exif_js_status": "GPS_OK",
        "exif_native_status": "GPS_OK",
        "exif_native_modo_leitura": "SELECTED_URI_PFD",
        "exif_native_seletor": null,
        "exif_native_rotas_tentadas": null,
        "duplicata_local_sha256": false,
        "grupo_duplicata_sha256": ""
      },
      "geometry": {
        "type": "Point",
        "coordinates": [
          -49.70239333333333,
          -6.504716666666667
        ]
      }
    },
    {
      "type": "Feature",
      "id": "TimePhoto_20261001_141805.jpg",
      "properties": {
        "nome": "TimePhoto_20261001_141805",
        "arquivo": "TimePhoto_20261001_141805.jpg",
        "caminho": "IMGS/TimePhoto_20261001_141805.jpg",
        "lat": -6.5046116666666665,
        "lon": -49.70210666666667,
        "latlon": "-6.504612, -49.702107",
        "utm": "22M 643512 9280830",
        "utm_zone": 22,
        "utm_band": "M",
        "utm_easting": 643512,
        "utm_northing": 9280830,
        "utm_hemisphere": "S",
        "data": "01/10/2026",
        "horario": "14:18",
        "legenda": "Terraplanagem",
        "hash_md5": null,
        "hash_sha256": "fd7bf4c2925f5f7de22a97fd5823531928050d7183294b53bfa4cd2ac280dbd4",
        "origem_coordenadas": "ANDROID_EXIF_NATIVE",
        "exif_js_status": "GPS_OK",
        "exif_native_status": "GPS_OK",
        "exif_native_modo_leitura": "SELECTED_URI_PFD",
        "exif_native_seletor": null,
        "exif_native_rotas_tentadas": null,
        "duplicata_local_sha256": false,
        "grupo_duplicata_sha256": ""
      },
      "geometry": {
        "type": "Point",
        "coordinates": [
          -49.70210666666667,
          -6.5046116666666665
        ]
      }
    }
  ],
  "ficha": {
    "id": "MURIDPL7",
    "dataCampo": "2026-10-02",
    "horaIni": "07:00",
    "horaFim": "17:00",
    "atividade": "Monitoramento",
    "categoria": "ADA",
    "projeto": "Santa Lúcia ",
    "coordCampo": "Cícero Oliveira ",
    "arqResp": "Cícero Oliveira ",
    "tipoAcao": "Corte de terreno, terraplanagem e carregamento de matéria orgânica ",
    "clima": "ensolarado",
    "vegetacao": "Capim e gramíneas ",
    "relevo": "Levemente acidentado ",
    "solo": "Latossolo argiloso ",
    "vestigios": "NAO",
    "coleta": "NAO",
    "desc": "Área de pastagem com vegetação contendo na sua maioria, capim e gramíneas.",
    "obs": "Durante acompanhamento das atividades, não evidênciamos materialidade aequeólogica.",
    "modeloDocx": "MONITORAMENTO",
    "status": "DRAFT",
    "imagens_sem_gps": []
  }
}