{
  "type": "FeatureCollection",
  "name": "imagens_pontos",
  "crs": {
    "type": "name",
    "properties": {
      "name": "urn:ogc:def:crs:OGC:1.3:CRS84"
    }
  },
  "features": [
    {
      "type": "Feature",
      "id": "TimePhoto_20260831_084221.jpg",
      "properties": {
        "nome": "TimePhoto_20260831_084221",
        "arquivo": "TimePhoto_20260831_084221.jpg",
        "caminho": "IMGS/TimePhoto_20260831_084221.jpg",
        "lat": -6.501821388888889,
        "lon": -49.703293333333335,
        "latlon": "-6.501821, -49.703293",
        "utm": "22M 643381 9281139",
        "utm_zone": 22,
        "utm_band": "M",
        "utm_easting": 643381,
        "utm_northing": 9281139,
        "utm_hemisphere": "S",
        "data": "31/08/2026",
        "horario": "08:42",
        "legenda": "Acompanhamento de atividade",
        "hash_md5": null,
        "hash_sha256": "496258fa9bc791ddd245dd0f73db823837cf81287d55e89baabdf96641c7622f",
        "origem_coordenadas": "ANDROID_EXIF_NATIVE",
        "exif_js_status": "GPS_OK",
        "exif_native_status": "GPS_OK",
        "exif_native_modo_leitura": "SELECTED_URI_PFD",
        "exif_native_seletor": null,
        "exif_native_rotas_tentadas": null,
        "duplicata_local_sha256": false,
        "grupo_duplicata_sha256": ""
      },
      "geometry": {
        "type": "Point",
        "coordinates": [
          -49.703293333333335,
          -6.501821388888889
        ]
      }
    },
    {
      "type": "Feature",
      "id": "TimePhoto_20260831_084234.jpg",
      "properties": {
        "nome": "TimePhoto_20260831_084234",
        "arquivo": "TimePhoto_20260831_084234.jpg",
        "caminho": "IMGS/TimePhoto_20260831_084234.jpg",
        "lat": -6.501798055555556,
        "lon": -49.703255000000006,
        "latlon": "-6.501798, -49.703255",
        "utm": "22M 643385 9281141",
        "utm_zone": 22,
        "utm_band": "M",
        "utm_easting": 643385,
        "utm_northing": 9281141,
        "utm_hemisphere": "S",
        "data": "31/08/2026",
        "horario": "08:42",
        "legenda": "Revolvimento de solo",
        "hash_md5": null,
        "hash_sha256": "05ab20cda0e821fa17b7b2e25525bc593364e1373b63c0926a5a5d72ac537bfd",
        "origem_coordenadas": "ANDROID_EXIF_NATIVE",
        "exif_js_status": "GPS_OK",
        "exif_native_status": "GPS_OK",
        "exif_native_modo_leitura": "SELECTED_URI_PFD",
        "exif_native_seletor": null,
        "exif_native_rotas_tentadas": null,
        "duplicata_local_sha256": false,
        "grupo_duplicata_sha256": ""
      },
      "geometry": {
        "type": "Point",
        "coordinates": [
          -49.703255000000006,
          -6.501798055555556
        ]
      }
    },
    {
      "type": "Feature",
      "id": "TimePhoto_20260831_084809.jpg",
      "properties": {
        "nome": "TimePhoto_20260831_084809",
        "arquivo": "TimePhoto_20260831_084809.jpg",
        "caminho": "IMGS/TimePhoto_20260831_084809.jpg",
        "lat": -6.501673333333334,
        "lon": -49.703120000000006,
        "latlon": "-6.501673, -49.703120",
        "utm": "22M 643400 9281155",
        "utm_zone": 22,
        "utm_band": "M",
        "utm_easting": 643400,
        "utm_northing": 9281155,
        "utm_hemisphere": "S",
        "data": "31/08/2026",
        "horario": "08:48",
        "legenda": "Carregamento de matéria orgânica",
        "hash_md5": null,
        "hash_sha256": "b08298c5ad40292fdfe2bbb2c7964bd3e474b0fa8260ef0a9b9a6c4a770ab242",
        "origem_coordenadas": "ANDROID_EXIF_NATIVE",
        "exif_js_status": "GPS_OK",
        "exif_native_status": "GPS_OK",
        "exif_native_modo_leitura": "SELECTED_URI_PFD",
        "exif_native_seletor": null,
        "exif_native_rotas_tentadas": null,
        "duplicata_local_sha256": false,
        "grupo_duplicata_sha256": ""
      },
      "geometry": {
        "type": "Point",
        "coordinates": [
          -49.703120000000006,
          -6.501673333333334
        ]
      }
    },
    {
      "type": "Feature",
      "id": "TimePhoto_20260831_084319.jpg",
      "properties": {
        "nome": "TimePhoto_20260831_084319",
        "arquivo": "TimePhoto_20260831_084319.jpg",
        "caminho": "IMGS/TimePhoto_20260831_084319.jpg",
        "lat": -6.501665,
        "lon": -49.70309138888889,
        "latlon": "-6.501665, -49.703091",
        "utm": "22M 643403 9281156",
        "utm_zone": 22,
        "utm_band": "M",
        "utm_easting": 643403,
        "utm_northing": 9281156,
        "utm_hemisphere": "S",
        "data": "31/08/2026",
        "horario": "08:43",
        "legenda": "Revolvimento de solo",
        "hash_md5": null,
        "hash_sha256": "4160a89f7bb2a9b2a0645da1d55fe55b1d1927481d2f0e06c2ccf6038062b5de",
        "origem_coordenadas": "ANDROID_EXIF_NATIVE",
        "exif_js_status": "GPS_OK",
        "exif_native_status": "GPS_OK",
        "exif_native_modo_leitura": "SELECTED_URI_PFD",
        "exif_native_seletor": null,
        "exif_native_rotas_tentadas": null,
        "duplicata_local_sha256": false,
        "grupo_duplicata_sha256": ""
      },
      "geometry": {
        "type": "Point",
        "coordinates": [
          -49.70309138888889,
          -6.501665
        ]
      }
    }
  ],
  "ficha": {
    "id": "MTHR5QXJ",
    "dataCampo": "2026-08-31",
    "horaIni": "07:00",
    "horaFim": "17:00",
    "atividade": "Monitoramento",
    "categoria": "ADA",
    "projeto": "Santa Lúcia ",
    "coordCampo": "Cícero Oliveira ",
    "arqResp": "Cícero Oliveira ",
    "tipoAcao": "Escavação de SUMP",
    "clima": "ensolarado",
    "vegetacao": "Floresta manejada ",
    "relevo": "Levemente acidentado ",
    "solo": "Latossolo argiloso ",
    "vestigios": "NAO",
    "coleta": "NAO",
    "desc": "A área de atividades, localiza-se próximo ao córrego Boqueirão e em sua vegetação predominam árvores como sanga d'água, escada de jabuti, capim e gramíneas.",
    "obs": "Durante acompanhamento das atividades, não evidênciamos materialidade aequeólogica.",
    "modeloDocx": "MONITORAMENTO",
    "status": "DRAFT",
    "imagens_sem_gps": []
  }
}