{
  "type": "FeatureCollection",
  "name": "imagens_pontos",
  "crs": {
    "type": "name",
    "properties": {
      "name": "urn:ogc:def:crs:OGC:1.3:CRS84"
    }
  },
  "features": [],
  "ficha": {
    "id": "MTG9WD88",
    "dataCampo": "2026-08-30",
    "horaIni": "07:00",
    "horaFim": "17:00",
    "atividade": "Monitoramento",
    "categoria": "ADA",
    "projeto": "Santa Lúcia ",
    "coordCampo": "Cícero Oliveira ",
    "arqResp": "Cícero Oliveira ",
    "tipoAcao": "Corte de terreno para acesso 01",
    "clima": "ensolarado",
    "vegetacao": "Floresta manejada",
    "relevo": "Levemente acidentado ",
    "solo": "Latossolo argiloso ",
    "vestigios": "NAO",
    "coleta": "NAO",
    "desc": "Área com vegetação secundária onde predominam capim e gramíneas ",
    "obs": "Durante acompanhamento das atividades, não evidênciamos materialidade aequeólogica.",
    "modeloDocx": "MONITORAMENTO",
    "status": "DRAFT",
    "imagens_sem_gps": [
      {
        "nome": "WhatsApp Image 2026-08-18 at 16.49.25 (1)",
        "arquivo": "WhatsApp Image 2026-08-18 at 16.49.25 (1).jpeg",
        "caminho": "IMGS/WhatsApp Image 2026-08-18 at 16.49.25 (1).jpeg",
        "data": "30/08/2026",
        "horario": "07:00",
        "legenda": "Corte de terreno",
        "hash_sha256": "9a3678155f831bb5a6ba9d9c983e9aa632a07b45d030d89d68d65ce81e857837",
        "origem_coordenadas": "SEM_GPS",
        "exif_js_status": "GPS_NAO_ENCONTRADO_JS",
        "exif_native_status": "GPS_NAO_ENCONTRADO_NO_EXIF_NATIVO",
        "exif_native_modo_leitura": "SELECTED_URI_PFD",
        "exif_native_seletor": null,
        "exif_native_rotas_tentadas": null
      },
      {
        "nome": "WhatsApp Image 2026-08-18 at 16.49.25",
        "arquivo": "WhatsApp Image 2026-08-18 at 16.49.25.jpeg",
        "caminho": "IMGS/WhatsApp Image 2026-08-18 at 16.49.25.jpeg",
        "data": "30/08/2026",
        "horario": "07:00",
        "legenda": "Corte de terreno",
        "hash_sha256": "dfa954df30e84cdaf308b4611eb2d5896ec5685b3fb6f117134a990087904c0a",
        "origem_coordenadas": "SEM_GPS",
        "exif_js_status": "GPS_NAO_ENCONTRADO_JS",
        "exif_native_status": "GPS_NAO_ENCONTRADO_NO_EXIF_NATIVO",
        "exif_native_modo_leitura": "SELECTED_URI_PFD",
        "exif_native_seletor": null,
        "exif_native_rotas_tentadas": null
      },
      {
        "nome": "WhatsApp Image 2026-08-26 at 12.13.45",
        "arquivo": "WhatsApp Image 2026-08-26 at 12.13.45.jpeg",
        "caminho": "IMGS/WhatsApp Image 2026-08-26 at 12.13.45.jpeg",
        "data": "30/08/2026",
        "horario": "07:00",
        "legenda": "Revolvimento de solo",
        "hash_sha256": "64aa09256d30b9c704cbca45859d0b0eff4a7c1caa18fb650b91e9e82293a12b",
        "origem_coordenadas": "SEM_GPS",
        "exif_js_status": "GPS_NAO_ENCONTRADO_JS",
        "exif_native_status": "GPS_NAO_ENCONTRADO_NO_EXIF_NATIVO",
        "exif_native_modo_leitura": "SELECTED_URI_PFD",
        "exif_native_seletor": null,
        "exif_native_rotas_tentadas": null
      },
      {
        "nome": "WhatsApp Image 2026-08-26 at 12.09.28",
        "arquivo": "WhatsApp Image 2026-08-26 at 12.09.28.jpeg",
        "caminho": "IMGS/WhatsApp Image 2026-08-26 at 12.09.28.jpeg",
        "data": "30/08/2026",
        "horario": "07:00",
        "legenda": "Corte de terreno",
        "hash_sha256": "83b3c5f6b23213829f299e0575adab3b64845c87ffbb7b2b5226c8c22f0165ae",
        "origem_coordenadas": "SEM_GPS",
        "exif_js_status": "GPS_NAO_ENCONTRADO_JS",
        "exif_native_status": "GPS_NAO_ENCONTRADO_NO_EXIF_NATIVO",
        "exif_native_modo_leitura": "SELECTED_URI_PFD",
        "exif_native_seletor": null,
        "exif_native_rotas_tentadas": null
      }
    ]
  }
}