{
  "type": "FeatureCollection",
  "name": "imagens_pontos",
  "crs": {
    "type": "name",
    "properties": {
      "name": "urn:ogc:def:crs:OGC:1.3:CRS84"
    }
  },
  "features": [
    {
      "type": "Feature",
      "id": "TimePhoto_20260909_080228.jpg",
      "properties": {
        "nome": "TimePhoto_20260909_080228",
        "arquivo": "TimePhoto_20260909_080228.jpg",
        "caminho": "IMGS/TimePhoto_20260909_080228.jpg",
        "lat": -6.501464722222222,
        "lon": -49.70342666666667,
        "latlon": "-6.501465, -49.703427",
        "utm": "22M 643366 9281178",
        "utm_zone": 22,
        "utm_band": "M",
        "utm_easting": 643366,
        "utm_northing": 9281178,
        "utm_hemisphere": "S",
        "data": "09/09/2026",
        "horario": "08:02",
        "legenda": "Acompanhamento de atividade",
        "hash_md5": null,
        "hash_sha256": "59b25cf9d05a9222a6b1c8989616bf68e92975959161a4c0385bdda9c1a0c60d",
        "origem_coordenadas": "ANDROID_EXIF_NATIVE",
        "exif_js_status": "GPS_OK",
        "exif_native_status": "GPS_OK",
        "exif_native_modo_leitura": "SELECTED_URI_PFD",
        "exif_native_seletor": null,
        "exif_native_rotas_tentadas": null,
        "duplicata_local_sha256": false,
        "grupo_duplicata_sha256": ""
      },
      "geometry": {
        "type": "Point",
        "coordinates": [
          -49.70342666666667,
          -6.501464722222222
        ]
      }
    },
    {
      "type": "Feature",
      "id": "TimePhoto_20260908_083929.jpg",
      "properties": {
        "nome": "TimePhoto_20260908_083929",
        "arquivo": "TimePhoto_20260908_083929.jpg",
        "caminho": "IMGS/TimePhoto_20260908_083929.jpg",
        "lat": -6.5018513888888885,
        "lon": -49.703163333333336,
        "latlon": "-6.501851, -49.703163",
        "utm": "22M 643395 9281135",
        "utm_zone": 22,
        "utm_band": "M",
        "utm_easting": 643395,
        "utm_northing": 9281135,
        "utm_hemisphere": "S",
        "data": "08/09/2026",
        "horario": "08:39",
        "legenda": "Revolvimento de solo",
        "hash_md5": null,
        "hash_sha256": "043542b80980fb1326dc9da5dc6b462456af5183e4c078f2d3ac44f1117d8347",
        "origem_coordenadas": "ANDROID_EXIF_NATIVE",
        "exif_js_status": "GPS_OK",
        "exif_native_status": "GPS_OK",
        "exif_native_modo_leitura": "SELECTED_URI_PFD",
        "exif_native_seletor": null,
        "exif_native_rotas_tentadas": null,
        "duplicata_local_sha256": false,
        "grupo_duplicata_sha256": ""
      },
      "geometry": {
        "type": "Point",
        "coordinates": [
          -49.703163333333336,
          -6.5018513888888885
        ]
      }
    },
    {
      "type": "Feature",
      "id": "TimePhoto_20260908_135053.jpg",
      "properties": {
        "nome": "TimePhoto_20260908_135053",
        "arquivo": "TimePhoto_20260908_135053.jpg",
        "caminho": "IMGS/TimePhoto_20260908_135053.jpg",
        "lat": -6.5014747222222224,
        "lon": -49.703293333333335,
        "latlon": "-6.501475, -49.703293",
        "utm": "22M 643381 9281177",
        "utm_zone": 22,
        "utm_band": "M",
        "utm_easting": 643381,
        "utm_northing": 9281177,
        "utm_hemisphere": "S",
        "data": "08/09/2026",
        "horario": "13:50",
        "legenda": "Carregamento de matéria orgânica",
        "hash_md5": null,
        "hash_sha256": "b5dc6cb5c8d0b7573dfa44d538c823659c13fa21365e58e9a7b3c418f2fb2f39",
        "origem_coordenadas": "ANDROID_EXIF_NATIVE",
        "exif_js_status": "GPS_OK",
        "exif_native_status": "GPS_OK",
        "exif_native_modo_leitura": "SELECTED_URI_PFD",
        "exif_native_seletor": null,
        "exif_native_rotas_tentadas": null,
        "duplicata_local_sha256": false,
        "grupo_duplicata_sha256": ""
      },
      "geometry": {
        "type": "Point",
        "coordinates": [
          -49.703293333333335,
          -6.5014747222222224
        ]
      }
    },
    {
      "type": "Feature",
      "id": "TimePhoto_20260909_082152.jpg",
      "properties": {
        "nome": "TimePhoto_20260909_082152",
        "arquivo": "TimePhoto_20260909_082152.jpg",
        "caminho": "IMGS/TimePhoto_20260909_082152.jpg",
        "lat": -6.501444722222222,
        "lon": -49.70332166666667,
        "latlon": "-6.501445, -49.703322",
        "utm": "22M 643378 9281180",
        "utm_zone": 22,
        "utm_band": "M",
        "utm_easting": 643378,
        "utm_northing": 9281180,
        "utm_hemisphere": "S",
        "data": "09/09/2026",
        "horario": "08:21",
        "legenda": "Carregamento de matéria orgânica",
        "hash_md5": null,
        "hash_sha256": "19d4e2c2c85cfcd853a9b0d91698fc699fb4fde8973fbc675e55f5181b003312",
        "origem_coordenadas": "ANDROID_EXIF_NATIVE",
        "exif_js_status": "GPS_OK",
        "exif_native_status": "GPS_OK",
        "exif_native_modo_leitura": "SELECTED_URI_PFD",
        "exif_native_seletor": null,
        "exif_native_rotas_tentadas": null,
        "duplicata_local_sha256": false,
        "grupo_duplicata_sha256": ""
      },
      "geometry": {
        "type": "Point",
        "coordinates": [
          -49.70332166666667,
          -6.501444722222222
        ]
      }
    }
  ],
  "ficha": {
    "id": "MTW769M4",
    "dataCampo": "2026-09-11",
    "horaIni": "07:00",
    "horaFim": "17:00",
    "atividade": "Monitoramento",
    "categoria": "ADA",
    "projeto": "Santa Lúcia ",
    "coordCampo": "Cícero Oliveira ",
    "arqResp": "Cícero Oliveira ",
    "tipoAcao": "Escavação de SUMP ",
    "clima": "ensolarado",
    "vegetacao": "Mata secundária ",
    "relevo": "Levemente acidentado ",
    "solo": "Latossolo argiloarenoso ",
    "vestigios": "NAO",
    "coleta": "NAO",
    "desc": "Área molhada com córrego no entorno e vegetação nativa secundária.",
    "obs": "Durante acompanhamento das atividades, não evidênciamos materialidade aequeólogica.",
    "modeloDocx": "MONITORAMENTO",
    "status": "DRAFT",
    "imagens_sem_gps": []
  }
}